CANX-2                  
1 32790U 08021H   24365.66017560  .00013317  00000+0  10983-2 0  9990
2 32790  97.7953 328.7501 0013596  48.4298 311.8088 14.99077033904766
SEEDS II (CO-66)        
1 32791U 08021J   24366.66818929  .00027992  00000+0  16270-2 0  9999
2 32791  97.7126 338.0770 0005490  23.8385 336.3098 15.12036772906271
SWISSCUBE               
1 35932U 09051B   24366.64351943  .00004731  00000+0  98430-3 0  9994
2 35932  98.4477 253.7997 0008256  69.3645 290.8439 14.60509912811360
BEESAT-1                
1 35933U 09051C   24366.62807071  .00004037  00000+0  85010-3 0  9990
2 35933  98.4407 254.4097 0006696  80.7718 279.4238 14.60045994811429
AEROCUBE 4.5A           
1 38767U 12048K   24365.52388701  .00043329  00000+0  16017-2 0  9997
2 38767  64.6528  37.8514 0111027 317.9001  41.3633 15.21795555290214
BRITE-CA1 (TORONTO)     
1 40020U 14033L   24366.81738212  .00005121  00000+0  80422-3 0  9997
2 40020  97.9021 137.5091 0081266 179.8689 180.2553 14.70809683563906
CANX-4                  
1 40055U 14034C   24366.64405022  .00004647  00000+0  62925-3 0  9997
2 40055  98.3760 209.6642 0012028 281.8535  78.1326 14.79437493565737
FOX-1A (AO-85)          
1 40967U 15058D   25001.07932343  .00014613  00000+0  12524-2 0  9994
2 40967  64.7767 127.2080 0182443 244.7605 113.4498 14.85715402 34357
SNAP-3 ALICE            
1 40970U 15058G   24366.42722691  .00046161  00000+0  23826-2 0  9993
2 40970  64.7677  62.0400 0128072 243.1674 115.6305 15.09143321 35400
OPTICUBE 04             
1 41851U 16067D   25001.07728254  .00008506  00000+0  59335-3 0  9998
2 41851  98.0854 180.9074 0018513 110.6144 249.7068 15.05518209444980
PROMETHEUS 2-1          
1 41854U 16067G   25001.01680203  .00063644  00000+0  20683-2 0  9993
2 41854  98.0906 197.7067 0009739  89.4729 270.7626 15.31633024445854
M2 PATHFINDER           
1 45727U 20037E   24366.44010124  .00009096  00000+0  73378-3 0  9998
2 45727  97.7772 182.3437 0011662 161.3691 198.7961 15.00051406245483
NETSAT-1                
1 46506U 20068W   24366.35524056  .00018274  00000+0  86920-3 0  9997
2 46506  97.8304 328.2272 0009476  68.4610 291.7633 15.19202450233997
SITRO-AIS 8 (ANOKHIN)   
1 57193U 23091AD  25001.12385952  .00025724  00000+0  13444-2 0  9990
2 57193  97.5843  58.3960 0015486 158.1278 202.0618 15.15759410 83413
SITRO-AIS 7 (FARTUSHNIY)
1 57194U 23091AE  25001.04290095  .00022433  00000+0  12050-2 0  9991
2 57194  97.5845  58.0459 0015775 158.8210 201.3678 15.14813079 83385
SITRO-AIS 9 (SHCHUKIN)  
1 57201U 23091AM  24366.95560584  .00028911  00000+0  14107-2 0  9998
2 57201  97.5856  59.7611 0011379 143.4400 216.7613 15.18193701 83488
SITRO-AIS 33            
1 59055U 24039E   25001.13600242  .00114464  00000+0  20068-2 0  9995
2 59055  97.4107 330.4963 0008030 208.0044 152.0777 15.50123368 47005
SITRO-AIS 34            
1 59058U 24039H   25001.13552272  .00111360  00000+0  19547-2 0  9999
2 59058  97.4109 330.4987 0007994 208.2278 151.8541 15.50101735 47005
SITRO-AIS 27            
1 59068U 24039T   25001.12835109  .00012399  00000+0  10918-2 0  9997
2 59068  95.3849 231.6681 0162357  20.6608 340.1078 14.86879158 45482
GRBBETA                 
1 60237U 24128C   25001.17290052  .00013391  00000+0  10683-2 0  9995
2 60237  61.9938 274.3611 0033663  19.3577 340.8782 15.00156150 26265
